{"type": "FeatureCollection", "features": [ {"type": "Feature", "properties": {"norad_id": 67070, "name": "DEAR-5", "group": "last-30-days", "lat": -40.03108400228949, "lon": -37.73211197751319, "alt_km": 529.2725088520974, "timestamp": "2025-12-24T09:46:29.718675+00:00", "meta": {"OBJECT_NAME": "DEAR-5", "OBJECT_ID": "2025-296B", "EPOCH": "2025-12-23T23:03:08.623008", "MEAN_MOTION": 15.16917161, "ECCENTRICITY": 0.0016166, "INCLINATION": 41.3551, "RA_OF_ASC_NODE": 37.5614, "ARG_OF_PERICENTER": 107.8349, "MEAN_ANOMALY": 252.4237, "EPHEMERIS_TYPE": 0, "CLASSIFICATION_TYPE": "U", "NORAD_CAT_ID": 67070, "ELEMENT_SET_NO": 999, "REV_AT_EPOCH": 165, "BSTAR": 0.0002755, "MEAN_MOTION_DOT": 5.352e-05, "MEAN_MOTION_DDOT": 0}, "tle": {"line1": "1 67070U 25296B   25357.96051647  .00005352  00000+0  27550-3 0  9990", "line2": "2 67070  41.3551  37.5614 0016166 107.8349 252.4237 15.16917161  1654"}}, "geometry": {"type": "Point", "coordinates": [-37.73211197751319, -40.03108400228949]}}, {"type": "Feature", "properties": {"norad_id": 67071, "name": "KZ-11 R/B", "group": "last-30-days", "lat": 41.05800283465842, "lon": 119.38937085385578, "alt_km": 189.03407249108386, "timestamp": "2025-12-24T09:46:29.718686+00:00", "meta": {"OBJECT_NAME": "KZ-11 R/B", "OBJECT_ID": "2025-296C", "EPOCH": "2025-12-23T13:32:08.952864", "MEAN_MOTION": 15.58172368, "ECCENTRICITY": 0.0391123, "INCLINATION": 41.3042, "RA_OF_ASC_NODE": 41.8002, "ARG_OF_PERICENTER": 29.8317, "MEAN_ANOMALY": 332.421, "EPHEMERIS_TYPE": 0, "CLASSIFICATION_TYPE": "U", "NORAD_CAT_ID": 67071, "ELEMENT_SET_NO": 999, "REV_AT_EPOCH": 157, "BSTAR": 0.0004340719, "MEAN_MOTION_DOT": 0.08905056, "MEAN_MOTION_DDOT": 7.462205e-06}, "tle": {"line1": "1 67071U 25296C   25357.56399251  .08905056  74622-5  43407-3 0  9997", "line2": "2 67071  41.3042  41.8002 0391123  29.8317 332.4210 15.58172368  1575"}}, "geometry": {"type": "Point", "coordinates": [119.38937085385578, 41.05800283465842]}}, {"type": "Feature", "properties": {"norad_id": 67072, "name": "ELECTRON R/B", "group": "last-30-days", "lat": 21.64999814573918, "lon": 143.99939224440286, "alt_km": 212.44549648646262, "timestamp": "2025-12-24T09:46:29.718696+00:00", "meta": {"OBJECT_NAME": "ELECTRON R/B", "OBJECT_ID": "2025-297A", "EPOCH": "2025-12-24T00:51:27.974880", "MEAN_MOTION": 16.29236648, "ECCENTRICITY": 0.0070591, "INCLINATION": 97.4425, "RA_OF_ASC_NODE": 146.541, "ARG_OF_PERICENTER": 193.6989, "MEAN_ANOMALY": 166.2391, "EPHEMERIS_TYPE": 0, "CLASSIFICATION_TYPE": "U", "NORAD_CAT_ID": 67072, "ELEMENT_SET_NO": 999, "REV_AT_EPOCH": 158, "BSTAR": 0.00064486, "MEAN_MOTION_DOT": 0.08921509, "MEAN_MOTION_DDOT": 1.9907e-06}, "tle": {"line1": "1 67072U 25297A   25358.03574045  .08921509  19907-5  64486-3 0  9994", "line2": "2 67072  97.4425 146.5410 0070591 193.6989 166.2391 16.29236648  1582"}}, "geometry": {"type": "Point", "coordinates": [143.99939224440286, 21.64999814573918]}}, {"type": "Feature", "properties": {"norad_id": 67073, "name": "RAISE-4", "group": "last-30-days", "lat": 52.6794537099911, "lon": -24.426697709585635, "alt_km": 546.7651615337245, "timestamp": "2025-12-24T09:46:29.718706+00:00", "meta": {"OBJECT_NAME": "RAISE-4", "OBJECT_ID": "2025-297B", "EPOCH": "2025-12-23T20:28:03.084672", "MEAN_MOTION": 15.0721471, "ECCENTRICITY": 0.00115193, "INCLINATION": 97.4855, "RA_OF_ASC_NODE": 145.1024, "ARG_OF_PERICENTER": 279.1752, "MEAN_ANOMALY": 80.8172, "EPHEMERIS_TYPE": 0, "CLASSIFICATION_TYPE": "U", "NORAD_CAT_ID": 67073, "ELEMENT_SET_NO": 999, "REV_AT_EPOCH": 146, "BSTAR": 0.00030298493, "MEAN_MOTION_DOT": 4.508e-05, "MEAN_MOTION_DDOT": 0}, "tle": {"line1": "1 67073U 25297B   25357.85281348  .00004508  00000+0  30298-3 0  9990", "line2": "2 67073  97.4855 145.1024 0011519 279.1752  80.8172 15.07214710  1465"}}, "geometry": {"type": "Point", "coordinates": [-24.426697709585635, 52.6794537099911]}}, {"type": "Feature", "properties": {"norad_id": 67074, "name": "ELECTRON KICK STAGE R/B", "group": "last-30-days", "lat": 51.12657814126699, "lon": -24.188059822747444, "alt_km": 403.0322890835778, "timestamp": "2025-12-24T09:46:29.718718+00:00", "meta": {"OBJECT_NAME": "ELECTRON KICK STAGE R/B", "OBJECT_ID": "2025-297C", "EPOCH": "2025-12-23T23:58:05.309184", "MEAN_MOTION": 15.58939906, "ECCENTRICITY": 0.0192715, "INCLINATION": 97.4821, "RA_OF_ASC_NODE": 145.9985, "ARG_OF_PERICENTER": 228.6247, "MEAN_ANOMALY": 129.8302, "EPHEMERIS_TYPE": 0, "CLASSIFICATION_TYPE": "U", "NORAD_CAT_ID": 67074, "ELEMENT_SET_NO": 999, "REV_AT_EPOCH": 153, "BSTAR": 0.0016845, "MEAN_MOTION_DOT": 0.00325582, "MEAN_MOTION_DDOT": 3.0584e-05}, "tle": {"line1": "1 67074U 25297C   25357.99867256  .00325582  30584-4  16845-2 0  9998", "line2": "2 67074  97.4821 145.9985 0192715 228.6247 129.8302 15.58939906  1533"}}, "geometry": {"type": "Point", "coordinates": [-24.188059822747444, 51.12657814126699]}}, {"type": "Feature", "properties": {"norad_id": 67075, "name": "STARLINK-36230", "group": "last-30-days", "lat": 4.993607558195289, "lon": 35.00039828219031, "alt_km": 321.6838266920731, "timestamp": "2025-12-24T09:46:29.718728+00:00", "meta": {"OBJECT_NAME": "STARLINK-36230", "OBJECT_ID": "2025-298A", "EPOCH": "2025-12-24T04:00:01.998720", "MEAN_MOTION": 15.84822261, "ECCENTRICITY": 0.0003771, "INCLINATION": 69.9964, "RA_OF_ASC_NODE": 217.5153, "ARG_OF_PERICENTER": 271.5692, "MEAN_ANOMALY": 331.1652, "EPHEMERIS_TYPE": 0, "CLASSIFICATION_TYPE": "U", "NORAD_CAT_ID": 67075, "ELEMENT_SET_NO": 999, "REV_AT_EPOCH": 281, "BSTAR": -0.0085468, "MEAN_MOTION_DOT": -0.01728206, "MEAN_MOTION_DDOT": 0}, "tle": {"line1": "1 67075U 25298A   25358.16668980 -.01728206  00000+0 -85468-2 0  9998", "line2": "2 67075  69.9964 217.5153 0003771 271.5692 331.1652 15.84822261  2815"}}, "geometry": {"type": "Point", "coordinates": [35.00039828219031, 4.993607558195289]}}, {"type": "Feature", "properties": {"norad_id": 67076, "name": "STARLINK-36240", "group": "last-30-days", "lat": 3.1732398802922144, "lon": 35.66486229192599, "alt_km": 321.85568138798317, "timestamp": "2025-12-24T09:46:29.718739+00:00", "meta": {"OBJECT_NAME": "STARLINK-36240", "OBJECT_ID": "2025-298B", "EPOCH": "2025-12-24T04:00:01.998720", "MEAN_MOTION": 15.84820252, "ECCENTRICITY": 0.0003756, "INCLINATION": 69.9966, "RA_OF_ASC_NODE": 217.5129, "ARG_OF_PERICENTER": 271.6128, "MEAN_ANOMALY": 333.0599, "EPHEMERIS_TYPE": 0, "CLASSIFICATION_TYPE": "U", "NORAD_CAT_ID": 67076, "ELEMENT_SET_NO": 999, "REV_AT_EPOCH": 281, "BSTAR": -0.0085316, "MEAN_MOTION_DOT": -0.01725379, "MEAN_MOTION_DDOT": 0}, "tle": {"line1": "1 67076U 25298B   25358.16668980 -.01725379  00000+0 -85316-2 0  9999", "line2": "2 67076  69.9966 217.5129 0003756 271.6128 333.0599 15.84820252  2818"}}, "geometry": {"type": "Point", "coordinates": [35.66486229192599, 3.1732398802922144]}}, {"type": "Feature", "properties": {"norad_id": 67077, "name": "STARLINK-36243", "group": "last-30-days", "lat": 1.0448061234401844, "lon": 36.438668869771945, "alt_km": 322.15488698962054, "timestamp": "2025-12-24T09:46:29.718749+00:00", "meta": {"OBJECT_NAME": "STARLINK-36243", "OBJECT_ID": "2025-298C", "EPOCH": "2025-12-24T04:00:01.998720", "MEAN_MOTION": 15.84809912, "ECCENTRICITY": 0.0003677, "INCLINATION": 69.9962, "RA_OF_ASC_NODE": 217.5101, "ARG_OF_PERICENTER": 273.4585, "MEAN_ANOMALY": 333.4871, "EPHEMERIS_TYPE": 0, "CLASSIFICATION_TYPE": "U", "NORAD_CAT_ID": 67077, "ELEMENT_SET_NO": 999, "REV_AT_EPOCH": 281, "BSTAR": -0.0085375, "MEAN_MOTION_DOT": -0.01725564, "MEAN_MOTION_DDOT": 0}, "tle": {"line1": "1 67077U 25298C   25358.16668980 -.01725564  00000+0 -85375-2 0  9991", "line2": "2 67077  69.9962 217.5101 0003677 273.4585 333.4871 15.84809912  2811"}}, "geometry": {"type": "Point", "coordinates": [36.438668869771945, 1.0448061234401844]}}, {"type": "Feature", "properties": {"norad_id": 67078, "name": "STARLINK-36236", "group": "last-30-days", "lat": -0.6401144201198022, "lon": 37.05046387602612, "alt_km": 322.2574074464801, "timestamp": "2025-12-24T09:46:29.718759+00:00", "meta": {"OBJECT_NAME": "STARLINK-36236", "OBJECT_ID": "2025-298D", "EPOCH": "2025-12-24T04:00:01.998720", "MEAN_MOTION": 15.84813709, "ECCENTRICITY": 0.0003776, "INCLINATION": 69.9964, "RA_OF_ASC_NODE": 217.508, "ARG_OF_PERICENTER": 272.6313, "MEAN_ANOMALY": 336.1052, "EPHEMERIS_TYPE": 0, "CLASSIFICATION_TYPE": "U", "NORAD_CAT_ID": 67078, "ELEMENT_SET_NO": 999, "REV_AT_EPOCH": 281, "BSTAR": -0.0085371, "MEAN_MOTION_DOT": -0.01725903, "MEAN_MOTION_DDOT": 0}, "tle": {"line1": "1 67078U 25298D   25358.16668980 -.01725903  00000+0 -85371-2 0  9995", "line2": "2 67078  69.9964 217.5080 0003776 272.6313 336.1052 15.84813709  2810"}}, "geometry": {"type": "Point", "coordinates": [37.05046387602612, -0.6401144201198022]}}, {"type": "Feature", "properties": {"norad_id": 67079, "name": "STARLINK-36159", "group": "last-30-days", "lat": -2.785403984340909, "lon": 37.83026490486464, "alt_km": 322.40000401513043, "timestamp": "2025-12-24T09:46:29.718769+00:00", "meta": {"OBJECT_NAME": "STARLINK-36159", "OBJECT_ID": "2025-298E", "EPOCH": "2025-12-24T04:00:01.998720", "MEAN_MOTION": 15.84804528, "ECCENTRICITY": 0.0003668, "INCLINATION": 69.9965, "RA_OF_ASC_NODE": 217.5054, "ARG_OF_PERICENTER": 271.0966, "MEAN_ANOMALY": 339.9307, "EPHEMERIS_TYPE": 0, "CLASSIFICATION_TYPE": "U", "NORAD_CAT_ID": 67079, "ELEMENT_SET_NO": 999, "REV_AT_EPOCH": 281, "BSTAR": -0.0085649, "MEAN_MOTION_DOT": -0.01729942, "MEAN_MOTION_DDOT": 0}, "tle": {"line1": "1 67079U 25298E   25358.16668980 -.01729942  00000+0 -85649-2 0  9991", "line2": "2 67079  69.9965 217.5054 0003668 271.0966 339.9307 15.84804528  2813"}}, "geometry": {"type": "Point", "coordinates": [37.83026490486464, -2.785403984340909]}}]}